ONEWEB-0309             
1 49095U 21075W   24031.44299204  .00000017  00000+0  11558-4 0  9997
2 49095  87.9231 178.4207 0001418  75.3415 284.7874 13.17648974119301
ONEWEB-0310             
1 49096U 21075X   24031.80931809  .00000428  00000+0  11538-2 0  9994
2 49096  87.9042 163.2461 0001555  93.9355 266.1951 13.12441961121414
ONEWEB-0311             
1 49097U 21075Y   24031.44930891  .00000024  00000+0  29454-4 0  9995
2 49097  87.9233 178.4204 0001028 111.0402 249.0839 13.17650359119353
ONEWEB-0312             
1 49098U 21075Z   24031.46354483 -.00000019  00000+0 -81718-4 0  9992
2 49098  87.9233 178.4498 0001006  86.5365 273.5882 13.17651767119331
ONEWEB-0313             
1 49099U 21075AA  24031.44140707  .00000035  00000+0  58203-4 0  9992
2 49099  87.9232 178.4565 0001179  95.6724 264.4542 13.17648426119326
ONEWEB-0315             
1 49101U 21075AC  24031.40273521 -.00000156  00000+0 -46867-3 0  9991
2 49101  87.9030 163.3267 0001557 107.4342 252.6957 13.12444437121341
ONEWEB-0316             
1 49102U 21075AD  24031.73932335  .00000035  00000+0  54970-4 0  9992
2 49102  87.9247 148.0806 0001468 113.1434 246.9853 13.18687455122884
